SatCatId,ObjectName,LaunchYear,OrbitalPeriod,LaunchMass,StatusCode,Inclination,Status,UcsData,OrbitClassEstimated,LaunchSiteCountry,Owner,UseType,Purpose,LaunchVehicleClass,TLE1,TLE2,MeanMotion,Eccentricity,OrbitClass
51624,ONEWEB-0415,2022,109.89,148.0,+,87.89,Active,1,LEO,French Guiana,UK,Commercial,Communications,Soyuz,1 51624U 22012C   24186.51786637  .00000429  00000+0  11940-2 0  9990,2 51624  87.8935 177.9939 0001669  83.3276 276.8041 13.10370559115959,13.10370559,0.0001669,LEO
51625,ONEWEB-0416,2022,109.89,148.0,+,87.89,Active,1,LEO,French Guiana,UK,Commercial,Communications,Soyuz,1 51625U 22012D   24186.52947532 -.00000222  00000+0 -67202-3 0  9991,2 51625  87.8940 177.9874 0002018  88.8296 271.3063 13.10372008115994,13.10372008,0.0002018,LEO
51626,ONEWEB-0422,2022,109.29,148.0,+,87.92,Active,1,LEO,French Guiana,UK,Commercial,Communications,Soyuz,1 51626U 22012E   24186.41404539  .00000056  00000+0  11034-3 0  9990,2 51626  87.9177 147.7564 0002699  71.8913 288.2512 13.17648788119945,13.17648788,0.0002699,LEO
51627,ONEWEB-0423,2022,109.29,148.0,+,87.92,Active,1,LEO,French Guiana,UK,Commercial,Communications,Soyuz,1 51627U 22012F   24186.40759117  .00000099  00000+0  22277-3 0  9993,2 51627  87.9180 147.7587 0002210  84.1457 275.9926 13.17650495119832,13.17650495,0.000221,LEO
51628,ONEWEB-0425,2022,109.89,148.0,+,87.89,Active,1,LEO,French Guiana,UK,Commercial,Communications,Soyuz,1 51628U 22012G   24186.53943318 -.00000624  00000+0 -18230-2 0  9995,2 51628  87.8940 177.9684 0002255  96.6132 263.5252 13.10371423115998,13.10371423,0.0002255,LEO
51629,ONEWEB-0428,2022,109.89,148.0,+,87.89,Active,1,LEO,French Guiana,UK,Commercial,Communications,Soyuz,1 51629U 22012H   24186.51952698  .00000306  00000+0  83920-3 0  9999,2 51629  87.8940 177.9880 0002038  78.3913 281.7443 13.10369650115959,13.1036965,0.0002038,LEO
51630,ONEWEB-0431,2022,109.89,148.0,+,87.89,Active,1,LEO,French Guiana,UK,Commercial,Communications,Soyuz,1 51630U 22012J   24186.48950695  .00000208  00000+0  55939-3 0  9992,2 51630  87.8939 177.9897 0001783  65.4842 294.6472 13.10376236116001,13.10376236,0.0001783,LEO
51631,ONEWEB-0434,2022,109.89,148.0,+,87.89,Active,1,LEO,French Guiana,UK,Commercial,Communications,Soyuz,1 51631U 22012K   24186.54274811 -.00000624  00000+0 -18240-2 0  9996,2 51631  87.8944 177.9951 0002173  84.6559 275.4817 13.10371928115991,13.10371928,0.0002173,LEO
51632,ONEWEB-0435,2022,109.89,148.0,+,87.89,Active,1,LEO,French Guiana,UK,Commercial,Communications,Soyuz,1 51632U 22012L   24186.47469531 -.00000490  00000+0 -14409-2 0  9998,2 51632  87.8947 177.9997 0002312  78.2975 281.8411 13.10374690115979,13.1037469,0.0002312,LEO
51633,ONEWEB-0436,2022,109.29,148.0,+,87.92,Active,1,LEO,French Guiana,UK,Commercial,Communications,Soyuz,1 51633U 22012M   24186.39950372  .00000020  00000+0  18848-4 0  9998,2 51633  87.9175 147.7642 0002248  79.2239 280.9146 13.17647547119811,13.17647547,0.0002248,LEO
51634,ONEWEB-0438,2022,109.89,148.0,+,87.89,Active,1,LEO,French Guiana,UK,Commercial,Communications,Soyuz,1 51634U 22012N   24186.53444622 -.00000436  00000+0 -12844-2 0  9992,2 51634  87.8940 177.9884 0002130  92.8298 267.3073 13.10369402116011,13.10369402,0.000213,LEO
51635,ONEWEB-0439,2022,109.89,148.0,+,87.89,Active,1,LEO,French Guiana,UK,Commercial,Communications,Soyuz,1 51635U 22012P   24186.46141946 -.00000098  00000+0 -31647-3 0  9995,2 51635  87.8944 177.9877 0001985  86.1499 273.9855 13.10372991115987,13.10372991,0.0001985,LEO
51636,ONEWEB-0442,2022,109.29,148.0,+,87.92,Active,1,LEO,French Guiana,UK,Commercial,Communications,Soyuz,1 51636U 22012Q   24186.39223533  .00000014  00000+0  24235-5 0  9994,2 51636  87.9179 147.8014 0001751 105.0904 255.0421 13.17650296119800,13.17650296,0.0001751,LEO
51637,ONEWEB-0443,2022,109.29,148.0,+,87.92,Active,1,LEO,French Guiana,UK,Commercial,Communications,Soyuz,1 51637U 22012R   24186.41081468  .00000092  00000+0  20414-3 0  9996,2 51637  87.9180 147.8055 0002570  81.4548 278.6875 13.17650104119856,13.17650104,0.000257,LEO
51638,ONEWEB-0444,2022,109.89,148.0,+,87.89,Active,1,LEO,French Guiana,UK,Commercial,Communications,Soyuz,1 51638U 22012S   24186.52781844 -.00000107  00000+0 -34179-3 0  9996,2 51638  87.8934 177.9957 0002205  84.0171 276.1208 13.10371007116006,13.10371007,0.0002205,LEO
51639,ONEWEB-0445,2022,109.89,148.0,+,87.89,Active,1,LEO,French Guiana,UK,Commercial,Communications,Soyuz,1 51639U 22012T   24186.47303076 -.00000523  00000+0 -15337-2 0  9994,2 51639  87.8936 177.9776 0001768  92.1042 268.0287 13.10374606116003,13.10374606,0.0001768,LEO
51640,ONEWEB-0446,2022,109.9,148.0,+,87.89,Active,1,LEO,French Guiana,UK,Commercial,Communications,Soyuz,1 51640U 22012U   24186.52615947 -.00000029  00000+0 -11916-3 0  9996,2 51640  87.8939 177.9931 0001713  89.9763 270.1560 13.10369910115992,13.1036991,0.0001713,LEO
51641,ONEWEB-0448,2022,109.89,148.0,+,87.89,Active,1,LEO,French Guiana,UK,Commercial,Communications,Soyuz,1 51641U 22012V   24186.53113366 -.00000264  00000+0 -79242-3 0  9993,2 51641  87.8939 177.9929 0002138  85.7990 274.3382 13.10370169115961,13.10370169,0.0002138,LEO
51642,ONEWEB-0449,2022,109.89,148.0,+,87.89,Active,1,LEO,French Guiana,UK,Commercial,Communications,Soyuz,1 51642U 22012W   24186.53611778 -.00000469  00000+0 -13800-2 0  9998,2 51642  87.8934 177.9862 0002119  95.7474 264.3895 13.10373350115974,13.1037335,0.0002119,LEO
51643,ONEWEB-0451,2022,109.29,148.0,+,87.92,Active,1,LEO,French Guiana,UK,Commercial,Communications,Soyuz,1 51643U 22012X   24186.39625877  .00000079  00000+0  16976-3 0  9991,2 51643  87.9172 147.7620 0002259  84.5658 275.5731 13.17648947119793,13.17648947,0.0002259,LEO
51644,ONEWEB-0452,2022,109.29,148.0,+,87.92,Active,1,LEO,French Guiana,UK,Commercial,Communications,Soyuz,1 51644U 22012Y   24186.39465377  .00000168  00000+0  39865-3 0  9990,2 51644  87.9180 147.8034 0002358  90.1778 269.9624 13.17650316119802,13.17650316,0.0002358,LEO
51646,ONEWEB-0456,2022,109.89,148.0,+,87.89,Active,1,LEO,French Guiana,UK,Commercial,Communications,Soyuz,1 51646U 22012AA  24186.46971312 -.00000577  00000+0 -16880-2 0  9998,2 51646  87.8935 177.9705 0001937  77.9580 282.1764 13.10373699116006,13.10373699,0.0001937,LEO
51647,ONEWEB-0457,2022,109.89,148.0,+,87.89,Active,1,LEO,French Guiana,UK,Commercial,Communications,Soyuz,1 51647U 22012AB  24186.52283354  .00000152  00000+0  39998-3 0  9991,2 51647  87.8939 177.9837 0001901  95.2614 264.8730 13.10368354116012,13.10368354,0.0001901,LEO
51648,ONEWEB-0458,2022,109.89,148.0,+,87.89,Active,1,LEO,French Guiana,UK,Commercial,Communications,Soyuz,1 51648U 22012AC  24186.54440896 -.00000640  00000+0 -18695-2 0  9994,2 51648  87.8945 177.9953 0002212  88.4600 271.6781 13.10373468115972,13.10373468,0.0002212,LEO
51649,ONEWEB-0461,2022,109.29,148.0,+,87.92,Active,1,LEO,French Guiana,UK,Commercial,Communications,Soyuz,1 51649U 22012AD  24186.56752982  .00000157  00000+0  37015-3 0  9998,2 51649  87.9175 147.7363 0002135  85.5567 274.5809 13.17655231120048,13.17655231,0.0002135,LEO
51650,ONEWEB-0463,2022,109.29,148.0,+,87.92,Active,1,LEO,French Guiana,UK,Commercial,Communications,Soyuz,1 51650U 22012AE  24186.39787808  .00000023  00000+0  26760-4 0  9994,2 51650  87.9180 147.8173 0002105  85.6100 274.5272 13.17648859119801,13.17648859,0.0002105,LEO
51651,ONEWEB-0464,2022,109.89,148.0,+,87.89,Active,1,LEO,French Guiana,UK,Commercial,Communications,Soyuz,1 51651U 22012AF  24186.46473485 -.00000622  00000+0 -18182-2 0  9990,2 51651  87.8944 177.9996 0002125  76.9934 283.1431 13.10372400115983,13.103724,0.0002125,LEO
51652,ONEWEB-0468,2022,109.89,148.0,+,87.89,Active,1,LEO,French Guiana,UK,Commercial,Communications,Soyuz,1 51652U 22012AG  24186.47137209 -.00000565  00000+0 -16549-2 0  9994,2 51652  87.8946 177.9912 0002064  85.1919 274.9444 13.10373905115962,13.10373905,0.0002064,LEO
51653,ONEWEB-0473,2022,109.89,148.0,+,87.89,Active,1,LEO,French Guiana,UK,Commercial,Communications,Soyuz,1 51653U 22012AH  24186.53279202 -.00000417  00000+0 -12317-2 0  9997,2 51653  87.8941 177.9826 0002168  86.7896 273.3479 13.10369489115972,13.10369489,0.0002168,LEO
51654,ONEWEB-0474,2022,109.89,148.0,+,87.89,Active,1,LEO,French Guiana,UK,Commercial,Communications,Soyuz,1 51654U 22012AJ  24186.52450217  .00000065  00000+0  14995-3 0  9996,2 51654  87.8929 177.9795 0002252  83.3272 276.8112 13.10370051115967,13.10370051,0.0002252,LEO
51655,ONEWEB-0475,2022,109.29,148.0,+,87.92,Active,1,LEO,French Guiana,UK,Commercial,Communications,Soyuz,1 51655U 22012AK  24186.40920781  .00000107  00000+0  24235-3 0  9997,2 51655  87.9179 147.7943 0002487  80.4836 279.6577 13.17650404119825,13.17650404,0.0002487,LEO
51656,EOS-4,2022,95.19,1710.0,+,97.51,Active,1,LEO,India,India,Government,Earth Observation,PSLV,1 51656U 22013A   24186.55588790  .00003589  00000+0  20860-3 0  9992,2 51656  97.5124 192.9989 0002007  94.9889 265.1571 15.12722198131758,15.12722198,0.0002007,LEO
51657,INSPIRESAT-1,2022,94.33,8.0,+,97.53,Active,1,LEO,India,India,Civil/Government,Earth Observation,PSLV,1 51657U 22013B   24186.58307136  .00015026  00000+0  57615-3 0  9996,2 51657  97.5267 203.5504 0010859 106.1420 254.1015 15.26546182132215,15.26546182,0.0010859,LEO
51658,INS-2TD,2022,93.07,17.5,+,97.52,Active,1,LEO,India,India,Government,Earth Observation,PSLV,1 51658U 22013C   24186.55911600  .00051787  00000+0  10129-2 0  9993,2 51658  97.5163 210.4811 0007972  99.0885 261.1267 15.47236667132681,15.47236667,0.0007972,LEO
51714,STARLINK-3528,2022,95.44,260.0,+,53.21,Active,1,LEO,USA,USA,Commercial,Communications,Falcon,1 51714U 22016A   24186.29758659  .00002429  00000+0  17065-3 0  9999,2 51714  53.2149 202.7469 0001325  87.0948 273.0196 15.08842427130824,15.08842427,0.0001325,LEO
